[{"OBJECT_NAME":"STARLINK-4586","OBJECT_ID":"2022-104BA","EPOCH":"2026-03-09T15:54:17.687808","MEAN_MOTION":15.08888095,"ECCENTRICITY":8.79e-5,"INCLINATION":53.2164,"RA_OF_ASC_NODE":224.0637,"ARG_OF_PERICENTER":62.9427,"MEAN_ANOMALY":297.1655,"EPHEMERIS_TYPE":0,"CLASSIFICATION_TYPE":"U","NORAD_CAT_ID":53636,"ELEMENT_SET_NO":999,"REV_AT_EPOCH":19622,"BSTAR":0.0014846643,"MEAN_MOTION_DOT":0.00023451,"MEAN_MOTION_DDOT":0},{"OBJECT_NAME":"CZ-6A DEB","OBJECT_ID":"2024-140AAN","EPOCH":"2026-03-09T15:08:07.195776","MEAN_MOTION":15.20547394,"ECCENTRICITY":0.0064261,"INCLINATION":89.3669,"RA_OF_ASC_NODE":306.3092,"ARG_OF_PERICENTER":93.6352,"MEAN_ANOMALY":267.2246,"EPHEMERIS_TYPE":0,"CLASSIFICATION_TYPE":"U","NORAD_CAT_ID":61480,"ELEMENT_SET_NO":999,"REV_AT_EPOCH":8198,"BSTAR":0.0033609,"MEAN_MOTION_DOT":0.00078405,"MEAN_MOTION_DDOT":0}]
